NORAD_CAT_ID,OBJECT_NAME,OBJECT_TYPE,EPOCH,MEAN_MOTION,ECCENTRICITY,INCLINATION,RA_OF_ASC_NODE,ARG_OF_PERICENTER,MEAN_ANOMALY,BSTAR,MEAN_MOTION_DOT,MEAN_MOTION_DDOT,TLE_LINE0,TLE_LINE1,TLE_LINE2,SEMIMAJOR_AXIS,PERIOD,APOGEE,PERIGEE,DECAYED
51798.0,STARLINK-3634,PAYLOAD,2024-05-07 04:52:36,15.08847132,0.0001453,53.2147,123.5385,83.8573,276.2584,0.00016279,2.304e-05,0.0,0 STARLINK-3634,1 51798U 22017AG  24128.20319841  .00002304  00000-0  16279-3 0  9994,2 51798  53.2147 123.5385 0001453  83.8573 276.2584 15.08847132122590,6917.859,95.437,540.729,538.718,0.0
51798.0,STARLINK-3634,PAYLOAD,2024-05-07 06:27:59,15.08846906,0.0001428,53.2151,123.2407,87.6618,272.4538,0.0001611,2.277e-05,0.0,0 STARLINK-3634,1 51798U 22017AG  24128.26943839  .00002277  00000-0  16110-3 0  9993,2 51798  53.2151 123.2407 0001428  87.6618 272.4538 15.08846906122608,6917.859,95.437,540.712,538.736,0.0
51798.0,STARLINK-3634,PAYLOAD,2024-05-08 04:43:23,15.08833199,0.0001372,53.2156,119.0781,72.9305,287.1838,-0.00010016,-1.881e-05,0.0,0 STARLINK-3634,1 51798U 22017AG  24129.19680463 -.00001881  00000-0 -10016-3 0  9998,2 51798  53.2156 119.0781 0001372  72.9305 287.1838 15.08833199122740,6917.901,95.438,540.715,538.817,0.0
51798.0,STARLINK-3634,PAYLOAD,2024-05-08 06:18:46,15.08834764,0.0001384,53.2156,118.7809,88.9488,271.1663,-7.7466e-05,-1.52e-05,0.0,0 STARLINK-3634,1 51798U 22017AG  24129.26304397 -.00001520  00000-0 -77466-4 0  9998,2 51798  53.2156 118.7809 0001384  88.9488 271.1663 15.08834764122758,6917.896,95.438,540.719,538.804,0.0
51798.0,STARLINK-3634,PAYLOAD,2024-05-08 15:51:05,15.08837527,0.0001414,53.2155,116.9963,89.8106,270.3048,1.0151e-05,-1.26e-06,0.0,0 STARLINK-3634,1 51798U 22017AG  24129.66048474 -.00000126  00000-0  10151-4 0  9991,2 51798  53.2155 116.9963 0001414  89.8106 270.3048 15.08837527122814,6917.888,95.438,540.731,538.775,0.0
51798.0,STARLINK-3634,PAYLOAD,2024-05-09 04:34:10,15.08839091,0.0001366,53.215,114.6167,89.5468,270.5681,0.00011614,1.561e-05,0.0,0 STARLINK-3634,1 51798U 22017AG  24130.19040353  .00001561  00000-0  11614-3 0  9996,2 51798  53.2150 114.6167 0001366  89.5468 270.5681 15.08839091122895,6917.883,95.438,540.693,538.803,0.0
51798.0,STARLINK-3634,PAYLOAD,2024-05-09 06:09:34,15.08842041,0.000138,53.2153,114.3208,94.5308,265.5842,0.00018433,2.647e-05,0.0,0 STARLINK-3634,1 51798U 22017AG  24130.25664410  .00002647  00000-0  18433-3 0  9991,2 51798  53.2153 114.3208 0001380  94.5308 265.5842 15.08842041122900,6917.874,95.437,540.694,538.784,0.0
51798.0,STARLINK-3634,PAYLOAD,2024-05-09 15:41:52,15.08850484,0.0001416,53.2161,112.5363,91.346,268.7694,0.00024396,3.598e-05,0.0,0 STARLINK-3634,1 51798U 22017AG  24130.65407801  .00003598  00000-0  24396-3 0  9995,2 51798  53.2161 112.5363 0001416  91.3460 268.7694 15.08850484122961,6917.848,95.437,540.693,538.734,0.0
51798.0,STARLINK-3634,PAYLOAD,2024-05-10 04:24:58,15.08838722,0.0001807,53.2182,110.158,98.2406,261.8791,0.00019034,2.742e-05,0.0,0 STARLINK-3634,1 51798U 22017AG  24131.18400656  .00002742  00000-0  19034-3 0  9998,2 51798  53.2182 110.1580 0001807  98.2406 261.8791 15.08838722123042,6917.884,95.438,540.999,538.499,0.0
51798.0,STARLINK-3634,PAYLOAD,2024-05-10 07:35:44,15.08838818,0.0001792,53.2186,109.5625,89.959,270.1608,0.00012895,1.765e-05,0.0,0 STARLINK-3634,1 51798U 22017AG  24131.31648663  .00001765  00000-0  12895-3 0  9997,2 51798  53.2186 109.5625 0001792  89.9590 270.1608 15.08838818123060,6917.884,95.438,540.989,538.509,0.0
51798.0,STARLINK-3634,PAYLOAD,2024-05-10 15:32:39,15.08849808,0.0001785,53.218,108.0747,79.3384,280.7809,0.00023872,3.514e-05,0.0,0 STARLINK-3634,1 51798U 22017AG  24131.64768124  .00003514  00000-0  23872-3 0  9999,2 51798  53.2180 108.0747 0001785  79.3384 280.7809 15.08849808123116,6917.85,95.437,540.95,538.481,0.0
51798.0,STARLINK-3634,PAYLOAD,2024-05-10 21:54:12,15.08852939,0.0002259,53.2177,106.8881,83.2466,276.8783,0.00024541,3.621e-05,0.0,0 STARLINK-3634,1 51798U 22017AG  24131.91264094  .00003621  00000-0  24541-3 0  9999,2 51798  53.2177 106.8881 0002259  83.2466 276.8783 15.08852939123159,6917.841,95.437,541.269,538.143,0.0
51798.0,STARLINK-3634,PAYLOAD,2024-05-11 04:15:44,15.08844243,0.0001779,53.2172,105.6968,81.8362,278.2831,4.1274e-05,3.69e-06,0.0,0 STARLINK-3634,1 51798U 22017AG  24132.17760313  .00000369  00000-0  41274-4 0  9992,2 51798  53.2172 105.6968 0001779  81.8362 278.2831 15.08844243123195,6917.867,95.437,540.963,538.502,0.0
51798.0,STARLINK-3634,PAYLOAD,2024-05-11 05:51:07,15.08863191,0.0001476,53.217,105.3992,88.1308,271.9853,0.00031621,4.751e-05,0.0,0 STARLINK-3634,1 51798U 22017AG  24132.24383235  .00004751  00000-0  31621-3 0  9997,2 51798  53.2170 105.3992 0001476  88.1308 271.9853 15.08863191123200,6917.81,95.436,540.696,538.653,0.0
51798.0,STARLINK-3634,PAYLOAD,2024-05-11 15:23:24,15.08884784,0.0001375,53.2166,103.6144,88.3975,271.7175,0.0005931,9.175e-05,0.0,0 STARLINK-3634,1 51798U 22017AG  24132.64125610  .00009175  00000-0  59310-3 0  9992,2 51798  53.2166 103.6144 0001375  88.3975 271.7175 15.08884784123267,6917.744,95.435,540.56,538.657,0.0
51798.0,STARLINK-3634,PAYLOAD,2024-05-11 21:44:58,15.08832285,0.0001533,53.2171,102.4255,99.143,260.9736,-0.00035158,-5.878e-05,0.0,0 STARLINK-3634,1 51798U 22017AG  24132.90623517 -.00005878  00000-0 -35158-3 0  9992,2 51798  53.2171 102.4255 0001533  99.1430 260.9736 15.08832285123302,6917.904,95.438,540.829,538.708,0.0
51798.0,STARLINK-3634,PAYLOAD,2024-05-12 04:06:31,15.08799136,0.0003841,53.2154,101.2384,163.2668,196.8451,-0.0016417,-0.00026297,0.0,0 STARLINK-3634,1 51798U 22017AG  24133.17119678 -.00026297  00000-0 -16417-2 0  9994,2 51798  53.2154 101.2384 0003841 163.2668 196.8451 15.08799136123345,6918.005,95.44,542.528,537.213,0.0
51798.0,STARLINK-3634,PAYLOAD,2024-05-12 07:17:19,15.08769656,0.0001274,53.2159,100.6423,92.7854,267.3284,-0.0019596,-0.0003128,0.0,0 STARLINK-3634,1 51798U 22017AG  24133.30369638 -.00031280  00000-0 -19596-2 0  9991,2 51798  53.2159 100.6423 0001274  92.7854 267.3284 15.08769656123362,6918.095,95.442,540.842,539.079,0.0
51798.0,STARLINK-3634,PAYLOAD,2024-05-12 15:14:16,15.08758,0.0001245,53.2161,99.1565,126.8885,233.2222,-0.0015936,-0.00025503,0.0,0 STARLINK-3634,1 51798U 22017AG  24133.63491254 -.00025503  00000-0 -15936-2 0  9992,2 51798  53.2161  99.1565 0001245 126.8885 233.2222 15.08758000123416,6918.131,95.443,540.857,539.135,0.0
51798.0,STARLINK-3634,PAYLOAD,2024-05-13 03:57:22,15.08813949,0.0001419,53.2168,96.7757,115.2987,244.8152,0.0017579,0.0002778,0.0,0 STARLINK-3634,1 51798U 22017AG  24134.16484161  .00027780  00000-0  17579-2 0  9992,2 51798  53.2168  96.7757 0001419 115.2987 244.8152 15.08813949123499,6917.96,95.439,540.807,538.843,0.0
51798.0,STARLINK-3634,PAYLOAD,2024-05-13 15:05:04,15.08840019,0.0001466,53.2167,94.6948,115.2776,244.8368,0.0010947,0.00017177,0.0,0 STARLINK-3634,1 51798U 22017AG  24134.62852121  .00017177  00000-0  10947-2 0  9999,2 51798  53.2167  94.6948 0001466 115.2776 244.8368 15.08840019123560,6917.88,95.438,540.759,538.731,0.0
51798.0,STARLINK-3634,PAYLOAD,2024-05-14 03:48:08,15.08858079,0.0001358,53.2163,92.3164,112.6671,247.4465,0.00091004,0.00014232,0.0,0 STARLINK-3634,1 51798U 22017AG  24135.15843404  .00014232  00000-0  91004-3 0  9995,2 51798  53.2163  92.3164 0001358 112.6671 247.4465 15.08858079123647,6917.825,95.436,540.63,538.751,0.0
51798.0,STARLINK-3634,PAYLOAD,2024-05-15 06:49:39,15.08883771,0.000125,53.2164,87.2616,110.0543,250.0583,0.00069381,0.00010784,0.0,0 STARLINK-3634,1 51798U 22017AG  24136.28448865  .00010784  00000-0  69381-3 0  9993,2 51798  53.2164  87.2616 0001250 110.0543 250.0583 15.08883771123811,6917.747,95.435,540.476,538.747,0.0
51798.0,STARLINK-3634,PAYLOAD,2024-05-15 21:08:07,15.08869534,0.000132,53.2172,84.5837,105.959,254.1547,0.00025733,3.813e-05,0.0,0 STARLINK-3634,1 51798U 22017AG  24136.88064330  .00003813  00000-0  25733-3 0  9998,2 51798  53.2172  84.5837 0001320 105.9590 254.1547 15.08869534123904,6917.79,95.436,540.568,538.742,0.0
51798.0,STARLINK-3634,PAYLOAD,2024-05-16 03:29:40,15.08853291,0.0001132,53.2169,83.3953,90.7395,269.3726,-0.00013745,-2.475e-05,0.0,0 STARLINK-3634,1 51798U 22017AG  24137.14560411 -.00002475  00000-0 -13745-3 0  9994,2 51798  53.2169  83.3953 0001132  90.7395 269.3726 15.08853291123945,6917.84,95.437,540.488,538.922,0.0
51798.0,STARLINK-3634,PAYLOAD,2024-05-17 03:20:27,15.08846438,0.00012,53.2171,78.9358,88.689,271.424,0.0002697,4.008e-05,0.0,0 STARLINK-3634,1 51798U 22017AG  24138.13920383  .00004008  00000-0  26970-3 0  9998,2 51798  53.2171  78.9358 0001200  88.6890 271.4240 15.08846438124096,6917.861,95.437,540.556,538.896,0.0
51798.0,STARLINK-3634,PAYLOAD,2024-05-17 12:52:45,15.08848833,0.000107,53.217,77.1506,77.7404,282.3708,3.7664e-05,3.12e-06,0.0,0 STARLINK-3634,1 51798U 22017AG  24138.53664160  .00000312  00000-0  37664-4 0  9997,2 51798  53.2170  77.1506 0001070  77.7404 282.3708 15.08848833124154,6917.853,95.437,540.459,538.978,0.0
51798.0,STARLINK-3634,PAYLOAD,2024-05-18 03:11:14,15.08839896,0.0001228,53.2166,74.4752,96.4708,263.6424,0.00022237,3.253e-05,0.0,0 STARLINK-3634,1 51798U 22017AG  24139.13281117  .00003253  00000-0  22237-3 0  9997,2 51798  53.2166  74.4752 0001228  96.4708 263.6424 15.08839896124248,6917.881,95.438,540.595,538.896,0.0
51798.0,STARLINK-3634,PAYLOAD,2024-05-18 12:43:33,15.08858621,0.0001416,53.2164,72.6888,63.8471,296.2667,0.00066241,0.00010275,0.0,0 STARLINK-3634,1 51798U 22017AG  24139.53024364  .00010275  00000-0  66241-3 0  9995,2 51798  53.2164  72.6888 0001416  63.8471 296.2667 15.08858621124305,6917.823,95.436,540.668,538.709,0.0
51798.0,STARLINK-3634,PAYLOAD,2024-05-18 20:40:28,15.08866998,0.0001011,53.2156,71.2027,91.3881,268.7227,0.0011169,0.00017545,0.0,0 STARLINK-3634,1 51798U 22017AG  24139.86144343  .00017545  00000-0  11169-2 0  9996,2 51798  53.2156  71.2027 0001011  91.3881 268.7227 15.08866998124355,6917.798,95.436,540.362,538.963,0.0
